STARLINK-35810          
1 66575U 25268U   25344.16668980 -.00156571  00000+0 -27129-2 0  9993
2 66575  43.0007 136.1590 0001992 271.5877 241.4605 15.50616127  4255
STARLINK-35814          
1 66576U 25268V   25344.16668980 -.00152251  00000+0 -26364-2 0  9995
2 66576  43.0004 136.1540 0002036 262.3573 252.6037 15.50616568  4251
STARLINK-35815          
1 66577U 25268W   25344.16668980 -.00204697  00000+0 -35682-2 0  9991
2 66577  43.0005 136.1494 0001830 271.9877 244.9045 15.50633226  4258
STARLINK-35743          
1 66578U 25268X   25344.16668980 -.00204328  00000+0 -35613-2 0  9997
2 66578  43.0006 136.1447 0001814 270.0725 248.7349 15.50635197  4250
STARLINK-35868          
1 66579U 25268Y   25344.16668980 -.00200113  00000+0 -34863-2 0  9992
2 66579  43.0005 136.1395 0002015 268.1151 252.6143 15.50631260  4250
STARLINK-35872          
1 66580U 25268Z   25344.16668980 -.00134930  00000+0 -23311-2 0  9993
2 66580  43.0008 136.1357 0001907 269.7201 252.9008 15.50612114  4255
STARLINK-35744          
1 66581U 25268AA  25344.16668980 -.00395629  00000+0 -70317-2 0  9996
2 66581  43.0005 136.1298 0001709 271.7665 252.7528 15.50785989  4205
STARLINK-35746          
1 66582U 25268AB  25344.16668980 -.00174883  00000+0 -30340-2 0  9996
2 66582  43.0006 136.1249 0001896 271.7822 254.6444 15.50652987  4259
STARLINK-35941          
1 66583U 25268AC  25344.16668980 -.00189705  00000+0 -32970-2 0  9997
2 66583  43.0006 136.1199 0001886 272.2728 256.0728 15.50659868  4250
STARLINK-35939          
1 66584U 25268AD  25344.16668980 -.00141101  00000+0 -24402-2 0  9997
2 66584  43.0007 136.1160 0001897 270.0886 260.2138 15.50607904  4259
STARLINK-35963          
1 66585U 25268AE  25344.16668980 -.00111769  00000+0 -19250-2 0  9990
2 66585  43.0007 136.1115 0001711 274.8024 257.4001 15.50602648  4258
TJS-21                  
1 66586U 25269A   25343.73296271  .00001080  00000+0 -41607-1 0  9997
2 66586  63.2680 162.6671 6805657 269.7843  18.6559  2.00565752   379
