CCSDS_OMM_VERS = 2.0
CREATION_DATE  = 
ORIGINATOR     = 

OBJECT_NAME    = STARLINK-35810
OBJECT_ID      = 2025-268U
CENTER_NAME    = EARTH
REF_FRAME      = TEME
TIME_SYSTEM    = UTC
MEAN_ELEMENT_THEORY = SGP/SGP4

EPOCH          = 2025-12-10T04:00:01.998720
MEAN_MOTION    = 15.50616127
ECCENTRICITY   = .0001992
INCLINATION    = 43.0007
RA_OF_ASC_NODE = 136.1590
ARG_OF_PERICENTER = 271.5877
MEAN_ANOMALY   = 241.4605

EPHEMERIS_TYPE = 0
CLASSIFICATION_TYPE = U
NORAD_CAT_ID   = 66575
ELEMENT_SET_NO = 999
REV_AT_EPOCH   = 425
BSTAR          = -.27129E-2
MEAN_MOTION_DOT = -.156571E-2
MEAN_MOTION_DDOT = 0

CCSDS_OMM_VERS = 2.0
CREATION_DATE  = 
ORIGINATOR     = 

OBJECT_NAME    = STARLINK-35814
OBJECT_ID      = 2025-268V
CENTER_NAME    = EARTH
REF_FRAME      = TEME
TIME_SYSTEM    = UTC
MEAN_ELEMENT_THEORY = SGP/SGP4

EPOCH          = 2025-12-10T04:00:01.998720
MEAN_MOTION    = 15.50616568
ECCENTRICITY   = .0002036
INCLINATION    = 43.0004
RA_OF_ASC_NODE = 136.1540
ARG_OF_PERICENTER = 262.3573
MEAN_ANOMALY   = 252.6037

EPHEMERIS_TYPE = 0
CLASSIFICATION_TYPE = U
NORAD_CAT_ID   = 66576
ELEMENT_SET_NO = 999
REV_AT_EPOCH   = 425
BSTAR          = -.26364E-2
MEAN_MOTION_DOT = -.152251E-2
MEAN_MOTION_DDOT = 0

CCSDS_OMM_VERS = 2.0
CREATION_DATE  = 
ORIGINATOR     = 

OBJECT_NAME    = STARLINK-35815
OBJECT_ID      = 2025-268W
CENTER_NAME    = EARTH
REF_FRAME      = TEME
TIME_SYSTEM    = UTC
MEAN_ELEMENT_THEORY = SGP/SGP4

EPOCH          = 2025-12-10T04:00:01.998720
MEAN_MOTION    = 15.50633226
ECCENTRICITY   = .000183
INCLINATION    = 43.0005
RA_OF_ASC_NODE = 136.1494
ARG_OF_PERICENTER = 271.9877
MEAN_ANOMALY   = 244.9045

EPHEMERIS_TYPE = 0
CLASSIFICATION_TYPE = U
NORAD_CAT_ID   = 66577
ELEMENT_SET_NO = 999
REV_AT_EPOCH   = 425
BSTAR          = -.35682E-2
MEAN_MOTION_DOT = -.204697E-2
MEAN_MOTION_DDOT = 0

CCSDS_OMM_VERS = 2.0
CREATION_DATE  = 
ORIGINATOR     = 

OBJECT_NAME    = STARLINK-35743
OBJECT_ID      = 2025-268X
CENTER_NAME    = EARTH
REF_FRAME      = TEME
TIME_SYSTEM    = UTC
MEAN_ELEMENT_THEORY = SGP/SGP4

EPOCH          = 2025-12-10T04:00:01.998720
MEAN_MOTION    = 15.50635197
ECCENTRICITY   = .0001814
INCLINATION    = 43.0006
RA_OF_ASC_NODE = 136.1447
ARG_OF_PERICENTER = 270.0725
MEAN_ANOMALY   = 248.7349

EPHEMERIS_TYPE = 0
CLASSIFICATION_TYPE = U
NORAD_CAT_ID   = 66578
ELEMENT_SET_NO = 999
REV_AT_EPOCH   = 425
BSTAR          = -.35613E-2
MEAN_MOTION_DOT = -.204328E-2
MEAN_MOTION_DDOT = 0

CCSDS_OMM_VERS = 2.0
CREATION_DATE  = 
ORIGINATOR     = 

OBJECT_NAME    = STARLINK-35868
OBJECT_ID      = 2025-268Y
CENTER_NAME    = EARTH
REF_FRAME      = TEME
TIME_SYSTEM    = UTC
MEAN_ELEMENT_THEORY = SGP/SGP4

EPOCH          = 2025-12-10T04:00:01.998720
MEAN_MOTION    = 15.50631260
ECCENTRICITY   = .0002015
INCLINATION    = 43.0005
RA_OF_ASC_NODE = 136.1395
ARG_OF_PERICENTER = 268.1151
MEAN_ANOMALY   = 252.6143

EPHEMERIS_TYPE = 0
CLASSIFICATION_TYPE = U
NORAD_CAT_ID   = 66579
ELEMENT_SET_NO = 999
REV_AT_EPOCH   = 425
BSTAR          = -.34863E-2
MEAN_MOTION_DOT = -.200113E-2
MEAN_MOTION_DDOT = 0

CCSDS_OMM_VERS = 2.0
CREATION_DATE  = 
ORIGINATOR     = 

OBJECT_NAME    = STARLINK-35872
OBJECT_ID      = 2025-268Z
CENTER_NAME    = EARTH
REF_FRAME      = TEME
TIME_SYSTEM    = UTC
MEAN_ELEMENT_THEORY = SGP/SGP4

EPOCH          = 2025-12-10T04:00:01.998720
MEAN_MOTION    = 15.50612114
ECCENTRICITY   = .0001907
INCLINATION    = 43.0008
RA_OF_ASC_NODE = 136.1357
ARG_OF_PERICENTER = 269.7201
MEAN_ANOMALY   = 252.9008

EPHEMERIS_TYPE = 0
CLASSIFICATION_TYPE = U
NORAD_CAT_ID   = 66580
ELEMENT_SET_NO = 999
REV_AT_EPOCH   = 425
BSTAR          = -.23311E-2
MEAN_MOTION_DOT = -.13493E-2
MEAN_MOTION_DDOT = 0

CCSDS_OMM_VERS = 2.0
CREATION_DATE  = 
ORIGINATOR     = 

OBJECT_NAME    = STARLINK-35744
OBJECT_ID      = 2025-268AA
CENTER_NAME    = EARTH
REF_FRAME      = TEME
TIME_SYSTEM    = UTC
MEAN_ELEMENT_THEORY = SGP/SGP4

EPOCH          = 2025-12-10T04:00:01.998720
MEAN_MOTION    = 15.50785989
ECCENTRICITY   = .0001709
INCLINATION    = 43.0005
RA_OF_ASC_NODE = 136.1298
ARG_OF_PERICENTER = 271.7665
MEAN_ANOMALY   = 252.7528

EPHEMERIS_TYPE = 0
CLASSIFICATION_TYPE = U
NORAD_CAT_ID   = 66581
ELEMENT_SET_NO = 999
REV_AT_EPOCH   = 420
BSTAR          = -.70317E-2
MEAN_MOTION_DOT = -.395629E-2
MEAN_MOTION_DDOT = 0

CCSDS_OMM_VERS = 2.0
CREATION_DATE  = 
ORIGINATOR     = 

OBJECT_NAME    = STARLINK-35746
OBJECT_ID      = 2025-268AB
CENTER_NAME    = EARTH
REF_FRAME      = TEME
TIME_SYSTEM    = UTC
MEAN_ELEMENT_THEORY = SGP/SGP4

EPOCH          = 2025-12-10T04:00:01.998720
MEAN_MOTION    = 15.50652987
ECCENTRICITY   = .0001896
INCLINATION    = 43.0006
RA_OF_ASC_NODE = 136.1249
ARG_OF_PERICENTER = 271.7822
MEAN_ANOMALY   = 254.6444

EPHEMERIS_TYPE = 0
CLASSIFICATION_TYPE = U
NORAD_CAT_ID   = 66582
ELEMENT_SET_NO = 999
REV_AT_EPOCH   = 425
BSTAR          = -.3034E-2
MEAN_MOTION_DOT = -.174883E-2
MEAN_MOTION_DDOT = 0

CCSDS_OMM_VERS = 2.0
CREATION_DATE  = 
ORIGINATOR     = 

OBJECT_NAME    = STARLINK-35941
OBJECT_ID      = 2025-268AC
CENTER_NAME    = EARTH
REF_FRAME      = TEME
TIME_SYSTEM    = UTC
MEAN_ELEMENT_THEORY = SGP/SGP4

EPOCH          = 2025-12-10T04:00:01.998720
MEAN_MOTION    = 15.50659868
ECCENTRICITY   = .0001886
INCLINATION    = 43.0006
RA_OF_ASC_NODE = 136.1199
ARG_OF_PERICENTER = 272.2728
MEAN_ANOMALY   = 256.0728

EPHEMERIS_TYPE = 0
CLASSIFICATION_TYPE = U
NORAD_CAT_ID   = 66583
ELEMENT_SET_NO = 999
REV_AT_EPOCH   = 425
BSTAR          = -.3297E-2
MEAN_MOTION_DOT = -.189705E-2
MEAN_MOTION_DDOT = 0

CCSDS_OMM_VERS = 2.0
CREATION_DATE  = 
ORIGINATOR     = 

OBJECT_NAME    = STARLINK-35939
OBJECT_ID      = 2025-268AD
CENTER_NAME    = EARTH
REF_FRAME      = TEME
TIME_SYSTEM    = UTC
MEAN_ELEMENT_THEORY = SGP/SGP4

EPOCH          = 2025-12-10T04:00:01.998720
MEAN_MOTION    = 15.50607904
ECCENTRICITY   = .0001897
INCLINATION    = 43.0007
RA_OF_ASC_NODE = 136.1160
ARG_OF_PERICENTER = 270.0886
MEAN_ANOMALY   = 260.2138

EPHEMERIS_TYPE = 0
CLASSIFICATION_TYPE = U
NORAD_CAT_ID   = 66584
ELEMENT_SET_NO = 999
REV_AT_EPOCH   = 425
BSTAR          = -.24402E-2
MEAN_MOTION_DOT = -.141101E-2
MEAN_MOTION_DDOT = 0

CCSDS_OMM_VERS = 2.0
CREATION_DATE  = 
ORIGINATOR     = 

OBJECT_NAME    = STARLINK-35963
OBJECT_ID      = 2025-268AE
CENTER_NAME    = EARTH
REF_FRAME      = TEME
TIME_SYSTEM    = UTC
MEAN_ELEMENT_THEORY = SGP/SGP4

EPOCH          = 2025-12-10T04:00:01.998720
MEAN_MOTION    = 15.50602648
ECCENTRICITY   = .0001711
INCLINATION    = 43.0007
RA_OF_ASC_NODE = 136.1115
ARG_OF_PERICENTER = 274.8024
MEAN_ANOMALY   = 257.4001

EPHEMERIS_TYPE = 0
CLASSIFICATION_TYPE = U
NORAD_CAT_ID   = 66585
ELEMENT_SET_NO = 999
REV_AT_EPOCH   = 425
BSTAR          = -.1925E-2
MEAN_MOTION_DOT = -.111769E-2
MEAN_MOTION_DDOT = 0

CCSDS_OMM_VERS = 2.0
CREATION_DATE  = 
ORIGINATOR     = 

OBJECT_NAME    = TJS-21
OBJECT_ID      = 2025-269A
CENTER_NAME    = EARTH
REF_FRAME      = TEME
TIME_SYSTEM    = UTC
MEAN_ELEMENT_THEORY = SGP/SGP4

EPOCH          = 2025-12-09T17:35:27.978144
MEAN_MOTION    = 2.00565752
ECCENTRICITY   = .6805657
INCLINATION    = 63.2680
RA_OF_ASC_NODE = 162.6671
ARG_OF_PERICENTER = 269.7843
MEAN_ANOMALY   = 18.6559

EPHEMERIS_TYPE = 0
CLASSIFICATION_TYPE = U
NORAD_CAT_ID   = 66586
ELEMENT_SET_NO = 999
REV_AT_EPOCH   = 37
BSTAR          = -.41607E-1
MEAN_MOTION_DOT = .108E-4
MEAN_MOTION_DDOT = 0

